0 ITALSAT 1
1 21055U 91003A   13283.19476204 -.00000297  00000-0  10000-3 0  9427
2 21055 013.2905 034.9722 0009079 290.4164 069.4854 00.99965876 70870
0 ITALSAT 1
1 21055U 91003A   13286.19567623 -.00000298  00000-0  10000-3 0  9438
2 21055 013.2950 034.9367 0008997 290.9364 068.9631 00.99964665 70906
0 ITALSAT 1
1 21055U 91003A   13288.19628377 -.00000295  00000-0  10000-3 0  9442
2 21055 013.2983 034.9146 0008674 290.8215 069.0698 00.99963877 70924
0 ITALSAT 1
1 21055U 91003A   13290.19690996 -.00000289  00000-0  10000-3 0  9455
2 21055 013.3016 034.8917 0009308 288.6483 071.2252 00.99963078 70940
0 ITALSAT 1
1 21055U 91003A   13292.19754559 -.00000281  00000-0  10000-3 0  9466
2 21055 013.3046 034.8682 0009322 289.0000 070.8655 00.99962343 70966
0 ITALSAT 1
1 21055U 91003A   13293.19787494 -.00000277  00000-0  10000-3 0  9477
2 21055 013.3061 034.8568 0009533 287.3463 072.5137 00.99961966 70979
